NORAD_CAT_ID,OBJECT_NAME,OBJECT_TYPE,EPOCH,MEAN_MOTION,ECCENTRICITY,INCLINATION,RA_OF_ASC_NODE,ARG_OF_PERICENTER,MEAN_ANOMALY,BSTAR,MEAN_MOTION_DOT,MEAN_MOTION_DDOT,TLE_LINE0,TLE_LINE1,TLE_LINE2,SEMIMAJOR_AXIS,PERIOD,APOGEE,PERIGEE,DECAYED
53159.0,STARLINK-4111,PAYLOAD,2024-05-09 14:49:33,15.08843843,0.0001216,53.2185,287.7064,101.1012,259.0116,0.00020744,3.015e-05,0.0,0 STARLINK-4111,1 53159U 22083AD  24130.61774723  .00003015  00000-0  20744-3 0  9994,2 53159  53.2185 287.7064 0001216 101.1012 259.0116 15.08843843100356,6917.869,95.437,540.575,538.892,0.0
53159.0,STARLINK-4111,PAYLOAD,2024-05-09 16:24:56,15.08845714,9.81e-05,53.2154,287.4037,90.5667,269.5438,0.00026119,3.872e-05,0.0,0 STARLINK-4111,1 53159U 22083AD  24130.68398777  .00003872  00000-0  26119-3 0  9995,2 53159  53.2154 287.4037 0000981  90.5667 269.5438 15.08845714100996,6917.863,95.437,540.407,539.049,0.0
53159.0,STARLINK-4111,PAYLOAD,2024-05-10 14:40:20,15.08846245,0.0001216,53.2178,283.241,80.509,279.6039,0.00035093,5.303e-05,0.0,0 STARLINK-4111,1 53159U 22083AD  24131.61134935  .00005303  00000-0  35093-3 0  9995,2 53159  53.2178 283.2410 0001216  80.5090 279.6039 15.08846245100508,6917.861,95.437,540.568,538.885,0.0
53159.0,STARLINK-4111,PAYLOAD,2024-05-10 17:51:06,15.0885298,8.98e-05,53.215,282.6484,104.6432,255.466,0.00028143,4.196e-05,0.0,0 STARLINK-4111,1 53159U 22083AD  24131.74382358  .00004196  00000-0  28143-3 0  9990,2 53159  53.2150 282.6484 0000898 104.6432 255.4660 15.08852980101152,6917.841,95.437,540.327,539.084,0.0
53159.0,STARLINK-4111,PAYLOAD,2024-05-11 09:44:55,15.08906722,0.0001051,53.2161,279.6702,110.5829,249.5276,0.00080712,0.00012604,0.0,0 STARLINK-4111,1 53159U 22083AD  24132.40619655  .00012604  00000-0  80712-3 0  9990,2 53159  53.2161 279.6702 0001051 110.5829 249.5276 15.08906722101253,6917.676,95.433,540.269,538.814,0.0
53159.0,STARLINK-4111,PAYLOAD,2024-05-11 16:06:28,15.08844442,0.0001115,53.218,278.4817,106.7639,253.3475,-0.00044007,-7.285e-05,0.0,0 STARLINK-4111,1 53159U 22083AD  24132.67116662 -.00007285  00000-0 -44007-3 0  9997,2 53159  53.2180 278.4817 0001115 106.7639 253.3475 15.08844442101293,6917.867,95.437,540.503,538.96,0.0
53159.0,STARLINK-4111,PAYLOAD,2024-05-12 03:14:12,15.08807228,0.0001587,53.2162,276.3994,94.2587,265.8587,-0.00095841,-0.00015495,0.0,0 STARLINK-4111,1 53159U 22083AD  24133.13486765 -.00015495  00000-0 -95841-3 0  9997,2 53159  53.2162 276.3994 0001587  94.2587 265.8587 15.08807228101363,6917.981,95.44,540.943,538.748,0.0
53159.0,STARLINK-4111,PAYLOAD,2024-05-12 14:21:56,15.08794137,0.0002433,53.2183,274.3209,109.3318,250.7938,0.0002941,4.39e-05,0.0,0 STARLINK-4111,1 53159U 22083AD  24133.59856750  .00004390  00000-0  29410-3 0  9991,2 53159  53.2183 274.3209 0002433 109.3318 250.7938 15.08794137100809,6918.021,95.44,541.569,538.202,0.0
53159.0,STARLINK-4111,PAYLOAD,2024-05-12 19:08:06,15.08796297,0.0001689,53.2168,273.427,78.8587,281.2595,0.0011692,0.00018347,0.0,0 STARLINK-4111,1 53159U 22083AD  24133.79729693  .00018347  00000-0  11692-2 0  9997,2 53159  53.2168 273.4270 0001689  78.8587 281.2595 15.08796297100830,6918.014,95.44,541.047,538.711,0.0
53159.0,STARLINK-4111,PAYLOAD,2024-05-13 12:37:20,15.08858388,0.000166,53.2167,270.1571,60.2684,299.8474,0.0014445,0.00022788,0.0,0 STARLINK-4111,1 53159U 22083AD  24134.52593728  .00022788  00000-0  14445-2 0  9990,2 53159  53.2167 270.1571 0001660  60.2684 299.8474 15.08858388101572,6917.824,95.436,540.838,538.541,0.0
53159.0,STARLINK-4111,PAYLOAD,2024-05-13 15:48:07,15.08868668,0.0001703,53.2166,269.5634,59.4293,300.6867,0.0017475,0.00027655,0.0,0 STARLINK-4111,1 53159U 22083AD  24134.65841523  .00027655  00000-0  17475-2 0  9997,2 53159  53.2166 269.5634 0001703  59.4293 300.6867 15.08868668100968,6917.793,95.436,540.836,538.48,0.0
53159.0,STARLINK-4111,PAYLOAD,2024-05-14 12:28:06,15.08888838,0.0001727,53.2165,265.6995,56.0321,304.0835,0.0010917,0.00017152,0.0,0 STARLINK-4111,1 53159U 22083AD  24135.51951600  .00017152  00000-0  10917-2 0  9996,2 53159  53.2165 265.6995 0001727  56.0321 304.0835 15.08888838101724,6917.731,95.434,540.791,538.401,0.0
53159.0,STARLINK-4111,PAYLOAD,2024-05-14 15:38:51,15.08900251,0.0001665,53.2163,265.1004,55.8789,304.2361,0.0013489,0.0002128,0.0,0 STARLINK-4111,1 53159U 22083AD  24135.65199023  .00021280  00000-0  13489-2 0  9998,2 53159  53.2163 265.1004 0001665  55.8789 304.2361 15.08900251101117,6917.696,95.434,540.713,538.409,0.0
53159.0,STARLINK-4111,PAYLOAD,2024-05-15 01:11:10,15.08878754,0.0001831,53.2163,263.318,61.6989,298.4188,0.0019119,0.00030304,0.0,0 STARLINK-4111,1 53159U 22083AD  24136.04942588  .00030304  00000-0  19119-2 0  9997,2 53159  53.2163 263.3180 0001831  61.6989 298.4188 15.08878754101803,6917.762,95.435,540.894,538.36,0.0
53159.0,STARLINK-4111,PAYLOAD,2024-05-15 12:18:52,15.08850909,0.0001569,53.215,261.2347,52.8603,307.2533,0.00063874,9.895e-05,0.0,0 STARLINK-4111,1 53159U 22083AD  24136.51310352  .00009895  00000-0  63874-3 0  9996,2 53159  53.2150 261.2347 0001569  52.8603 307.2533 15.08850909101876,6917.847,95.437,540.797,538.627,0.0
53159.0,STARLINK-4111,PAYLOAD,2024-05-15 13:54:14,15.08866534,0.0001547,53.2154,260.9372,64.418,295.6972,-0.00021918,-3.777e-05,0.0,0 STARLINK-4111,1 53159U 22083AD  24136.57933906 -.00003777  00000-0 -21918-3 0  9996,2 53159  53.2154 260.9372 0001547  64.4180 295.6972 15.08866534101259,6917.799,95.436,540.734,538.594,0.0
53159.0,STARLINK-4111,PAYLOAD,2024-05-15 18:40:24,15.08871562,0.0001738,53.2159,260.0434,84.8979,275.2212,0.00093835,0.0001469,0.0,0 STARLINK-4111,1 53159U 22083AD  24136.77805703  .00014690  00000-0  93835-3 0  9992,2 53159  53.2159 260.0434 0001738  84.8979 275.2212 15.08871562101919,6917.784,95.436,540.851,538.447,0.0
53159.0,STARLINK-4111,PAYLOAD,2024-05-16 01:01:57,15.08845242,0.0001962,53.2153,258.8535,80.4187,279.7026,0.00017856,2.555e-05,0.0,0 STARLINK-4111,1 53159U 22083AD  24137.04302289  .00002555  00000-0  17856-3 0  9990,2 53159  53.2153 258.8535 0001962  80.4187 279.7026 15.08845242101954,6917.864,95.437,541.087,538.372,0.0
53159.0,STARLINK-4111,PAYLOAD,2024-05-16 12:09:39,15.08843548,0.0001527,53.2156,256.7732,84.141,275.9756,0.00040454,6.157e-05,0.0,0 STARLINK-4111,1 53159U 22083AD  24137.50670387  .00006157  00000-0  40454-3 0  9990,2 53159  53.2156 256.7732 0001527  84.1410 275.9756 15.08843548101393,6917.87,95.437,540.791,538.678,0.0
53159.0,STARLINK-4111,PAYLOAD,2024-05-17 00:52:44,15.08847315,0.0002097,53.216,254.3935,76.8594,283.2632,0.00087845,0.00013723,0.0,0 STARLINK-4111,1 53159U 22083AD  24138.03662637  .00013723  00000-0  87845-3 0  9990,2 53159  53.2160 254.3935 0002097  76.8594 283.2632 15.08847315102102,6917.858,95.437,541.174,538.272,0.0
53159.0,STARLINK-4111,PAYLOAD,2024-05-17 12:00:26,15.08850722,0.0002385,53.2155,252.3109,76.3957,283.7301,0.00058039,8.964e-05,0.0,0 STARLINK-4111,1 53159U 22083AD  24138.50030522  .00008964  00000-0  58039-3 0  9998,2 53159  53.2155 252.3109 0002385  76.3957 283.7301 15.08850722101546,6917.848,95.437,541.363,538.063,0.0
53159.0,STARLINK-4111,PAYLOAD,2024-05-17 16:46:35,15.08855892,0.0002619,53.216,251.4199,78.2431,281.8855,0.00082255,0.00012833,0.0,0 STARLINK-4111,1 53159U 22083AD  24138.69902389  .00012833  00000-0  82255-3 0  9994,2 53159  53.2160 251.4199 0002619  78.2431 281.8855 15.08855892101578,6917.832,95.437,541.509,537.885,0.0
53159.0,STARLINK-4111,PAYLOAD,2024-05-18 00:43:31,15.08834734,0.0001554,53.216,249.9337,103.2901,256.8264,2.1387e-05,5.2e-07,0.0,0 STARLINK-4111,1 53159U 22083AD  24139.03022234  .00000052  00000-0  21387-4 0  9995,2 53159  53.2160 249.9337 0001554 103.2901 256.8264 15.08834734102256,6917.896,95.438,540.837,538.686,0.0
53159.0,STARLINK-4111,PAYLOAD,2024-05-18 13:26:36,15.0883485,0.0001373,53.2116,247.5545,101.1817,258.9329,0.00016272,2.302e-05,0.0,0 STARLINK-4111,1 53159U 22083AD  24139.56014525  .00002302  00000-0  16272-3 0  9993,2 53159  53.2116 247.5545 0001373 101.1817 258.9329 15.08834850101707,6917.896,95.438,540.711,538.811,0.0
53159.0,STARLINK-4111,PAYLOAD,2024-05-19 13:17:25,15.08818648,0.0001699,53.2161,243.095,85.7462,274.3724,7.7621e-05,9.47e-06,0.0,0 STARLINK-4111,1 53159U 22083AD  24140.55376203  .00000947  00000-0  77621-4 0  9997,2 53159  53.2161 243.0950 0001699  85.7462 274.3724 15.08818648101856,6917.946,95.439,540.986,538.635,0.0
53159.0,STARLINK-4111,PAYLOAD,2024-05-20 13:08:11,15.08858294,0.0001784,53.2174,238.6316,90.8463,269.2734,0.0011972,0.00018826,0.0,0 STARLINK-4111,1 53159U 22083AD  24141.54736083  .00018826  00000-0  11972-2 0  9993,2 53159  53.2174 238.6316 0001784  90.8463 269.2734 15.08858294102631,6917.824,95.436,540.924,538.455,0.0
53159.0,STARLINK-4111,PAYLOAD,2024-05-21 12:58:58,15.0884803,0.0001404,53.2161,234.1658,79.0971,281.0179,0.00039931,6.074e-05,0.0,0 STARLINK-4111,1 53159U 22083AD  24142.54095933  .00006074  00000-0  39931-3 0  9994,2 53159  53.2161 234.1658 0001404  79.0971 281.0179 15.08848030102787,6917.856,95.437,540.692,538.75,0.0
53159.0,STARLINK-4111,PAYLOAD,2024-05-22 11:14:22,15.08849105,0.0001649,53.2172,230.0143,96.0938,264.0242,0.00041248,6.284e-05,0.0,0 STARLINK-4111,1 53159U 22083AD  24143.46831869  .00006284  00000-0  41248-3 0  9999,2 53159  53.2172 230.0143 0001649  96.0938 264.0242 15.08849105102928,6917.853,95.437,540.858,538.577,0.0
53159.0,STARLINK-4111,PAYLOAD,2024-05-23 12:40:33,15.0884143,0.0001527,53.2162,225.2594,86.1025,274.0142,7.529e-05,9.1e-06,0.0,0 STARLINK-4111,1 53159U 22083AD  24144.52815979  .00000910  00000-0  75290-4 0  9996,2 53159  53.2162 225.2594 0001527  86.1025 274.0142 15.08841430103086,6917.876,95.437,540.797,538.685,0.0
53159.0,STARLINK-4111,PAYLOAD,2024-05-24 14:06:42,15.08848416,0.0001555,53.2158,220.4971,88.9757,271.1413,0.00010713,1.418e-05,0.0,0 STARLINK-4111,1 53159U 22083AD  24145.58799647  .00001418  00000-0  10713-3 0  9998,2 53159  53.2158 220.4971 0001555  88.9757 271.1413 15.08848416102618,6917.855,95.437,540.795,538.644,0.0
